STARLINK-5008           
1 53927U 22119AT  23257.45479048  .00000584  00000+0  54799-4 0  9995
2 53927  53.2181  61.8504 0001292  84.3997 275.7143 15.08832015 54939
STARLINK-5009           
1 53928U 22119AU  23257.44604161  .00000171  00000+0  28867-4 0  9990
2 53928  53.2182  56.7916 0001272  88.8778 271.2359 15.08828348 55008
STARLINK-5018           
1 53929U 22119AV  23257.76157511 -.00000781  00000+0 -31011-4 0  9992
2 53929  53.2176  65.1860 0001239  94.9000 265.2133 15.08833753 54494
STARLINK-5010           
1 53930U 22119AW  23257.43129211 -.00000210  00000+0  49283-5 0  9991
2 53930  53.2173  56.7035 0001553  78.1007 282.0159 15.08835824 55007
STARLINK-5015           
1 53931U 22119AX  23257.75374810  .00025438  00000+0  16112-2 0  9994
2 53931  53.2166  50.1752 0001087  61.9567 298.1535 15.08826673 54701
STARLINK-4772           
1 53932U 22119AY  23257.46308191 -.00001320  00000+0 -64890-4 0  9996
2 53932  53.2181  51.9103 0001376  77.7527 282.3619 15.08828885 55087
STARLINK-4782           
1 53933U 22119AZ  23257.44235198  .00000359  00000+0  40648-4 0  9995
2 53933  53.2189  56.7698 0001292  84.4961 275.6179 15.08833951 55000
STARLINK-4775           
1 53934U 22119BA  23257.45939396 -.00000503  00000+0 -13494-4 0  9990
2 53934  53.2168  51.8820 0001986  98.8730 261.2487 15.08832388 55099
STARLINK-5000           
1 53935U 22119BB  23257.70686050 -.00001317  00000+0 -64697-4 0  9990
2 53935  53.2188  40.6024 0001276  98.9783 261.1354 15.08828375 54839
STARLINK-4791           
1 53936U 22119BC  23257.42991759 -.00000086  00000+0  12720-4 0  9996
2 53936  53.2172  51.7039 0001423  78.6610 281.4542 15.08831895 55083
STARLINK-4765           
1 53937U 22119BD  23257.44696406 -.00000610  00000+0 -20226-4 0  9994
2 53937  53.2193  46.8267 0001357  91.9502 268.1646 15.08831663 55146
STARLINK-4633           
1 53964U 22125A   23257.49023126 -.00006575  00000+0 -39563-3 0  9998
2 53964  53.2177 336.8547 0001355  89.9919 270.1228 15.08816603 52365
STARLINK-4578           
1 53965U 22125B   23257.48750771 -.00006164  00000+0 -36976-3 0  9990
2 53965  53.2187 336.8355 0001641  74.5341 285.5832 15.08815628 52368
STARLINK-4635           
1 53966U 22125C   23257.54910552 -.00004308  00000+0 -25287-3 0  9994
2 53966  53.2181 336.5102 0001517  65.0940 295.0210 15.08817648 52373
STARLINK-4634           
1 53967U 22125D   23257.61165938 -.00005222  00000+0 -31041-3 0  9994
2 53967  53.2179 336.1891 0001476  77.1083 283.0074 15.08819489 52457
STARLINK-4629           
1 53968U 22125E   23257.53436750 -.00006540  00000+0 -39348-3 0  9991
2 53968  53.2187 336.4172 0001572  79.4597 280.6573 15.08812811 52374
STARLINK-4468           
1 53969U 22125F   23257.54173572 -.00004729  00000+0 -27941-3 0  9996
2 53969  53.2190 336.4645 0001440  81.5656 278.5499 15.08815993 52375
STARLINK-4567           
1 53970U 22125G   23257.47779167 -.00003523  00000+0 -20343-3 0  9992
2 53970  53.2188 331.7941 0001490  94.2016 265.9147 15.08829832 52442
STARLINK-4639           
1 53971U 22125H   23257.53806128 -.00002888  00000+0 -16352-3 0  9996
2 53971  53.2191 336.4407 0001435  81.9771 278.1384 15.08818379 52371
STARLINK-5157           
1 53972U 22125J   23257.53299629 -.00002939  00000+0 -16672-3 0  9991
2 53972  53.2177 331.4302 0001325  74.9381 285.1758 15.08822445 52442
STARLINK-5156           
1 53973U 22125K   23257.53068266 -.00004126  00000+0 -24145-3 0  9997
2 53973  53.2193 336.3965 0001561  99.9875 260.1294 15.08817274 52371
STARLINK-5159           
1 53974U 22125L   23257.43312391 -.00004273  00000+0 -25065-3 0  9993
2 53974  53.2169 316.5580 0001199  88.2118 271.9011 15.08821756 52643
STARLINK-5137           
1 53975U 22125M   23257.43358191 -.00006352  00000+0 -38159-3 0  9990
2 53975  53.2176 331.5292 0001486  97.9477 262.1684 15.08819552 52439
STARLINK-5134           
1 53976U 22125N   23257.45749095 -.00003170  00000+0 -18980-3 0  9995
2 53976  53.2168 316.7189 0001489  87.9916 272.1246 15.07187725 52648
STARLINK-5094           
1 53977U 22125P   23257.48516935 -.00005014  00000+0 -29731-3 0  9999
2 53977  53.2186 331.8316 0001635  73.0393 287.0778 15.08820354 52432
STARLINK-5148           
1 53978U 22125Q   23257.53025725 -.00005822  00000+0 -34823-3 0  9993
2 53978  53.2186 331.4079 0001580  82.1807 277.9365 15.08814012 52440
STARLINK-5123           
1 53979U 22125R   23257.47411693 -.00005761  00000+0 -34438-3 0  9994
2 53979  53.2182 331.7650 0001627  75.5832 284.5341 15.08816648 52435
STARLINK-5133           
1 53980U 22125S   23257.44832312 -.00006112  00000+0 -36654-3 0  9991
2 53980  53.2181 331.6050 0001657  79.7824 280.3355 15.08811344 52436
STARLINK-5149           
1 53981U 22125T   23257.38162585 -.00000925  00000+0 -40027-4 0  9999
2 53981  53.2181 316.9645 0001712 114.9353 245.1817 15.08829758 52636
STARLINK-5120           
1 53982U 22125U   23257.47641983 -.00003595  00000+0 -20800-3 0  9996
2 53982  53.2175 326.7996 0001319  83.9528 276.1615 15.08820784 52494
STARLINK-5103           
1 53983U 22125V   23257.45521289 -.00000230  00000+0  36733-5 0  9997
2 53983  53.2178 316.6900 0001450 112.8143 247.3002 15.08848983 52640
STARLINK-5142           
1 53984U 22125W   23257.42123383 -.00005190  00000+0 -30842-3 0  9992
2 53984  53.2176 327.1653 0001558  91.7556 268.3615 15.08816625 52497
STARLINK-5147           
1 53985U 22125X   23257.49485466 -.00003102  00000+0 -17701-3 0  9993
2 53985  53.2179 326.9120 0001415  85.1802 274.9351 15.08815851 52502
STARLINK-5119           
1 53986U 22125Y   23257.44048920 -.00002600  00000+0 -14534-3 0  9992
2 53986  53.2175 316.6022 0001595  76.3525 283.7645 15.08830533 52631
STARLINK-5112           
1 53987U 22125Z   23257.62364861 -.00003365  00000+0 -19351-3 0  9999
2 53987  53.2183 326.2912 0001468  98.3594 261.7565 15.08821688 52598
STARLINK-5113           
1 53988U 22125AA  23257.48379423 -.00002597  00000+0 -14519-3 0  9991
2 53988  53.2178 326.8447 0001360  94.7954 265.3193 15.08823571 52492
STARLINK-5115           
1 53989U 22125AB  23257.47370085 -.00004240  00000+0 -24858-3 0  9990
2 53989  53.2184 326.7817 0001536 104.6095 255.5068 15.08824630 52503
STARLINK-5075           
1 53990U 22125AC  23257.48011334 -.00003040  00000+0 -17306-3 0  9999
2 53990  53.2187 326.8236 0001438  80.6815 279.4340 15.08819164 52490
STARLINK-5118           
1 53991U 22125AD  23257.54315638  .00001421  00000+0  11198-3 0  9993
2 53991  53.2167 315.7708 0001317  97.0884 263.0258 15.07195995 52657
STARLINK-5108           
1 53992U 22125AE  23257.47272999 -.00005637  00000+0 -33653-3 0  9993
2 53992  53.2168 326.7750 0001513 117.5775 242.5371 15.08818425 52494
STARLINK-5121           
1 53993U 22125AF  23257.44925571 -.00007044  00000+0 -42535-3 0  9995
2 53993  53.2165 321.6390 0001556  70.3402 289.7758 15.08804686 52560
STARLINK-5125           
1 53994U 22125AG  23257.46168098 -.00005931  00000+0 -35510-3 0  9999
2 53994  53.2178 326.7076 0001659  72.5881 287.5292 15.08813859 52506
STARLINK-5097           
1 53995U 22125AH  23257.46904242 -.00002859  00000+0 -16166-3 0  9991
2 53995  53.2166 326.7603 0001360  64.6893 295.4240 15.08831013 52495
STARLINK-5131           
1 53996U 22125AJ  23257.59047904 -.00003533  00000+0 -20410-3 0  9996
2 53996  53.2171 326.0875 0001407  73.8429 286.2718 15.08820778 52590
STARLINK-5130           
1 53997U 22125AK  23257.55831708 -.00000956  00000+0 -42008-4 0  9990
2 53997  53.2172 316.6206 0001556  78.9404 281.1763 15.08831008 52658
STARLINK-5128           
1 53998U 22125AL  23257.51782365 -.00004729  00000+0 -27938-3 0  9997
2 53998  53.2169 326.3468 0001312  74.6237 285.4900 15.08820105 52511
STARLINK-5079           
1 53999U 22125AM  23257.46535087 -.00001732  00000+0 -90767-4 0  9991
2 53999  53.2168 326.7298 0001412  80.6618 279.4534 15.08835967 52504
STARLINK-5088           
1 54000U 22125AN  23257.48839781 -.00003851  00000+0 -22410-3 0  9998
2 54000  53.2166 316.8945 0001365  81.8784 278.2363 15.08818651 52642
STARLINK-5105           
1 54001U 22125AP  23257.51686690 -.00005645  00000+0 -33709-3 0  9998
2 54001  53.2168 326.3409 0001428  78.0644 282.0508 15.08817200 52518
STARLINK-5109           
1 54002U 22125AQ  23257.44418271 -.00003573  00000+0 -20663-3 0  9992
2 54002  53.2164 316.6458 0001689  72.8989 287.2188 15.08821700 52649
STARLINK-5114           
1 54003U 22125AR  23257.52055064 -.00002291  00000+0 -12598-3 0  9993
2 54003  53.2169 326.3611 0001328  73.9504 286.1634 15.08814364 52517
STARLINK-5129           
1 54004U 22125AS  23257.50949230 -.00005412  00000+0 -32244-3 0  9997
2 54004  53.2166 326.2939 0001261  76.2775 283.8358 15.08811710 52518
STARLINK-5135           
1 54005U 22125AT  23257.51318283 -.00003642  00000+0 -21098-3 0  9995
2 54005  53.2168 326.3197 0001409  76.5264 283.5885 15.08817363 52510
STARLINK-5096           
1 54006U 22125AU  23257.43219940 -.00007869  00000+0 -47722-3 0  9994
2 54006  53.2179 326.5322 0001334  85.9916 274.1229 15.08812640 52498
STARLINK-5132           
1 54007U 22125AV  23257.50580972 -.00006999  00000+0 -42236-3 0  9997
2 54007  53.2177 326.2740 0001432  79.1662 280.9492 15.08813698 52514
STARLINK-5145           
1 54008U 22125AW  23257.43680179  .00018962  00000+0  12067-2 0  9999
2 54008  53.2168 316.5819 0001385  71.6947 288.4196 15.08827973 52643
STARLINK-5099           
1 54009U 22125AX  23257.50212414  .00001638  00000+0  12105-3 0  9997
2 54009  53.2174 326.2499 0001437  84.1968 275.9187 15.08809397 52510
STARLINK-5127           
1 54010U 22125AY  23257.42945360 -.00002204  00000+0 -12052-3 0  9996
2 54010  53.2173 316.5460 0001425  78.1185 281.9967 15.08819957 52642
STARLINK-5124           
1 54011U 22125AZ  23257.55096135 -.00001954  00000+0 -10477-3 0  9998
2 54011  53.2178 316.5771 0001332  90.1025 270.0120 15.08820567 52657
